#dP2023 12 11 12  0  0.00000000      96 __u+U IGS20 EXT  IAC
## 2292 129600.00000000   900.00000000 60289 0.5000000000000
+  118   C06C07C08C09C10C11C12C13C14C16C19C20C21C22C23C24C25
+        C26C27C28C29C30C32C33C34C35C36C37C38C39C40C41C42C43
+        C44C45C46E02E03E04E05E07E08E09E10E11E12E13E15E18E19
+        E21E24E25E26E27E30E31E33E34E36G01G02G03G04G05G06G07
+        G08G09G10G11G12G13G14G15G16G17G18G19G20G21G22G23G24
+        G25G26G27G28G29G30G31G32J02J03J04R01R02R03R04R05R07
+        R08R09R11R12R13R14R15R16R17R18R19R20R21R22R24R25  0
++        10 11 10  8  8  9  8  9  8 10  7  8  8  8  9  8 10
++         9 10  8 10  8  8  8  9  7  7  8 10  8 10  8  9 10
++         8  9 10  9  7  9  7  7  7  8  8  7  7  8  7  8 10
++         7  7  8  7  8  9  7  7  8  7  7  7  7  7  7  6  7
++         7  7  7  7  7  8  8  8  8  6  7  7  7  7  8  8  7
++         6  7  8  7  6  7  6  7  9  9 11  8  7  7  7  9  8
++         8  8  9  7  8  8  9  8  8  7  8  9  8  8  7  9  0
%c M  cc GPS ccc cccc cccc cccc cccc ccccc ccccc ccccc ccccc
%c cc cc ccc ccc cccc cccc cccc cccc ccccc ccccc ccccc ccccc
%f  0.0000000  0.000000000  0.00000000000  0.000000000000000
%f  0.0000000  0.000000000  0.00000000000  0.000000000000000
%i    0    0    0    0      0      0      0      0         0
%i    0    0    0    0      0      0      0      0         0
/* IAC                                ULTRA-RAPID PREDICTION
/* S/V CLOCKS ARE ALIGNED TO GNSS TIME                      
/* G:C1WC2W R:C1PC2P E:C1XC5X C:C2IC6I J:C1CC2S             
/* PCV:IGS20_2290 OL/AL:FES2004  NONE     YN ORB:CoN CLK:CoN
*  2023 12 12  2 15  0.00000000
PC06  -1631.239873  32812.691713  26609.862159    203.727404
PC07 -14035.863220  27747.026672 -28469.710122   -460.517896
PC08 -14385.026074  39062.958556   5986.741827    186.178367
PC09   6542.577955  37703.014742  18778.269877   -205.866961
PC10  -5320.681068  28021.292383 -30804.920947    -50.103126
PC11   -123.300149 -18585.587369  20897.594842    301.864737
PC12  16709.625832  -4835.649714  21866.534080    828.862024
PC13  -9403.888294  39411.516154  11295.603830    394.557852
PC14  10284.200944 -17679.078942 -18952.331958   -266.471262
PC16  -3068.183387  31442.615527  28326.296691   -221.564980
PC19    201.695455  16306.266693  22667.721639   -953.794307
PC20 -17842.137035  16582.352873  13644.739015     37.002521
PC21  26689.779222  -6756.161281   4516.070766   -967.932648
PC22  19167.938512   6650.393613  19146.527738   -190.107839
PC23 -11422.421289 -16574.849787  19328.152396   -805.402269
PC24  12138.790675 -22339.265615 -11560.540950    683.866986
PC25   -645.818059 -27226.415658   6129.708535    276.074729
PC26  16606.571878  -5469.683601 -21777.375824   -218.935804
PC27 -21828.279452  -2563.113892 -17205.054708    240.940651
PC28 -22615.461620 -16051.137505  -3109.689301    182.252344
PC29   9827.923677  21148.059215 -15328.873386    213.352246
PC30  -9447.882880  12960.171754 -22839.586463    -10.195965
PC32 -26643.350582   6915.340654  -4596.385929   -541.914683
PC33   -208.772977 -16347.075057 -22614.715456   -941.984326
PC34   8090.796989 -13997.913213  22736.414848    322.970954
PC35  23234.848552  15169.094360   3140.957637    482.742403
PC36   -544.032480  27366.783916  -5378.686138    -96.732687
PC37 -16707.494003   4303.425868  21931.968658   -920.929007
PC38 -17737.920432  38086.661619  -2221.021125    123.478374
PC39  -5488.949783  28326.066438  30854.446257     -6.052226
PC40 -20318.413070  21371.899494 -30221.354580    -47.496446
PC41 -18601.637773  -7095.869428 -19506.170264   -873.206746
PC42  19063.872993 -16201.324908 -12303.077595   -482.595908
PC43  -8890.059739 -21114.241705  15914.564861     51.946405
PC44  22080.034976   1852.170452  16973.397290    320.125095
PC45  11556.845611  16069.628703 -19668.537884    -54.147898
PC46 -11588.173356  23002.832708  10671.580287   -106.799411
PE02  21231.436985 -20499.969204  -2438.187663     85.882363
PE03  19311.530149 -10139.083875 -20017.446610    -79.516672
PE04   1864.242912  17479.535458  23816.083233   -278.041825
PE05  29082.340286   3025.322075  -4627.004265   4699.623911
PE07 -21587.491878 -14699.088187 -13935.999453    -92.565779
PE08  -1209.871564 -17264.708576 -24019.724510   -190.813527
PE09  21507.142343  14649.603320  14095.456084   -259.757634
PE10   9481.209380  28026.301323    748.846985   -585.675710
PE11  14785.614271  23180.927166  10974.154646   3261.371245
PE12   3207.543664  28198.367115  -8430.596731   -815.011177
PE13 -14491.897758 -23644.999333 -10334.020841    -19.673291
PE15  -2889.270839 -28065.161938   8962.653452    -74.239500
PE18  -3333.788873 -17556.399799  18849.682562     84.461861
PE19 -21311.321303   8510.371884  18693.177002  -1033.398642
PE21 -22475.265926   5778.127760  18367.651107   -568.430940
PE24  10376.553544  13470.381405 -24243.951078   -480.969647
PE25  22376.484963  -5428.504785 -18605.935194     -2.101518
PE26 -17494.375724  -4684.127486 -23402.625742    307.069822
PE27 -10738.744680 -13041.463700  24306.308267   -221.957388
PE30   7526.897486 -24015.691279  15585.407842   -734.685169
PE31  -7173.317733  23938.874591 -15851.226334    -11.561455
PE33 -10557.957659  15423.464529 -22940.255752      4.028806
PE34  10196.151754 -16020.991764  22710.933978    -82.868360
PE36  17443.448330   5467.700718  23291.018485   -156.458268
PG01  14885.809394    155.737337  21688.277551    163.854975
PG02  17301.456248   6216.397156  19754.648535   -516.793123
PG03  20494.212470  -7877.792550  14720.390985     48.176813
PG04  25183.401373    201.530057  -8635.776959    237.114094
PG05 -15606.056815  -4064.364830 -21298.712198   -153.783504
PG06  -6064.614563 -25676.787069   2622.835252    480.654840
PG07   8262.204112 -16833.513164 -18141.349482     -9.622341
PG08  26332.595988   4923.334541    -67.104913   -156.507650
PG09  18155.881192  -8930.336443 -17325.777016     24.059281
PG10  -7525.841633  21600.457983  13405.405996    -64.958056
PG11 -11974.017396 -22161.992739  -8478.879014   -497.187695
PG12 -21004.983998   5866.521930  14830.410800   -456.497030
PG13 -21423.582363 -13800.718415  -8071.277845    604.714120
PG14  11033.470187 -21889.481246  10022.015943    268.369784
PG15 -26560.793478  -2440.322829   -897.986421    106.043989
PG16  11008.460159  10656.928949 -22025.366029   -405.831804
PG17   4303.626752 -14562.580208  22226.668282    722.130272
PG18  -7206.405779  18199.362931 -17850.717393   -503.867193
PG19  -6262.869845 -16387.927650  19855.262850    411.245004
PG20  -6904.796979 -15889.102475 -20126.034156    397.104011
PG21  17802.943497  10594.906890  17633.735900    141.798231
PG22   5468.783722 -20585.271816  16489.048505     67.663832
PG23 -16435.551580  20682.208606   1476.055449    114.492008
PG24 -17629.253765  -6248.850465  18604.450963   -391.411420
PG25 -19739.162075  16596.852356   5383.816867    481.122221
PG26   4214.974604  17812.966420 -19263.870001    209.951238
PG27  19898.535450  13049.174012 -12491.746622    -81.828323
PG28   5365.022517  25513.399758   5053.952004    -67.807406
PG29 -19358.188766   6377.595020 -17129.025624   -609.831356
PG30    919.917059 -23989.381983 -10947.710627   -458.453950
PG31   9996.602054  24084.439240  -3895.558589   -226.519466
PG32    892.138031  15643.797121  21653.312198   -595.405571
PJ02 -35632.118335  22612.695423   3411.952682     -0.519758
PJ03 -19296.278704  23800.300948 -24337.915212    -11.606409
PJ04 -27754.993611  30941.347986  13618.550688     74.014961
PR01   4117.779422  10307.642002  22964.463890     71.904129
PR02  20409.631116   3600.995093  14963.617647    -22.337282
PR03  24940.450531  -5267.991323  -1603.677223     90.743278
PR04  15772.063343 -10679.418940 -16952.161517    215.090660
PR05  -1857.602756 -10558.152015 -23137.492490    123.652620
PR07 -24704.052547   5674.098045   2610.371214     71.131500
PR08 -15399.620067  10950.872453  17168.882812    -73.647269
PR09  -8913.554546  -8435.529993  22366.642504    158.229210
PR11 -10969.282451  22025.061700   6761.503273   -220.492878
PR12  -1596.935651  22275.921962 -12289.142743     34.367844
PR13   7455.428725  10778.819282 -21901.085767    -42.224003
PR14  13330.758906  -9702.221024 -19450.849891     25.734990
PR15  10676.556389 -22544.600452  -5313.092978     84.031413
PR16   1692.633309 -22378.605618  12099.443134     21.451508
PR17  14520.534156   2547.783778  20820.169979     42.730214
PR18   3531.546742 -11665.208996  22422.489679    116.424428
PR19  -7624.739821 -20035.328752  13836.378671   -257.970772
PR20 -17213.214073 -17547.783732  -6726.655924   -105.017882
PR21 -14197.750050  -2254.253775 -21070.618072    -60.303326
PR22  -3338.196495  12619.357401 -21885.298481     97.836260
PR24  18102.926452  16425.291971   7287.117945    -35.597946
PR25 -16010.348986  10907.893116  16620.727986    -12.662579
EOF
